STARLINK-31161          
1 58795U 24012J   26068.33254313 -.00000120  00000+0  51591-5 0  9998
2 58795  43.0016 167.0695 0000821 246.6906 113.3859 15.27571922121182
FLOCK 4G-23             
1 62647U 25009AQ  26068.71663397  .00012440  00000+0  46816-3 0  9993
2 62647  97.3979 150.9478 0000905   7.2707 352.8545 15.27262579 63728
